ONEWEB-0403             
1 50483U 21132Q   24293.84999726  .00000030  00000+0  43770-4 0  9990
2 50483  87.9058  95.9274 0001480  92.4890 267.6411 13.18688824143093
ONEWEB-0404             
1 50484U 21132R   24293.30624007 -.00000775  00000+0 -22238-2 0  9991
2 50484  87.8918 141.7648 0001246  82.6835 277.4435 13.11416527136283
ONEWEB-0405             
1 50485U 21132S   24293.86578225  .00000102  00000+0  22534-3 0  9995
2 50485  87.9053  95.9136 0001751 105.1290 255.0036 13.18689034143508
ONEWEB-0406             
1 50486U 21132T   24293.47534266  .00000103  00000+0  22888-3 0  9993
2 50486  87.9058  96.0062 0001117  70.6028 289.5224 13.18688893141797
ONEWEB-0407             
1 50487U 21132U   24293.46901581 -.00000342  00000+0 -90097-3 0  9995
2 50487  87.9049  96.0032 0001642  98.6874 261.4444 13.18685010141732
ONEWEB-0409             
1 50488U 21132V   24293.53343552 -.00000485  00000+0 -14031-2 0  9993
2 50488  87.8908 141.7054 0001328  72.1677 287.9596 13.11417537137485
ONEWEB-0412             
1 50489U 21132W   24293.45794910  .00000048  00000+0  89241-4 0  9993
2 50489  87.9058  96.0112 0001892 106.5242 253.6098 13.18688911141829
ONEWEB-0413             
1 50490U 21132X   24293.46269528  .00000115  00000+0  25838-3 0  9994
2 50490  87.9058  96.0229 0001936 100.2318 259.9032 13.18688362141764
